ORBCOMM FM115           
1 41186U 15081H   24150.17259020  .00000954  00000+0  22887-3 0  9990
2 41186  46.9998  63.5532 0000126 127.4583 232.6315 14.60753231451598
ORBCOMM FM108           
1 41187U 15081J   24150.27173687  .00001073  00000+0  27552-3 0  9993
2 41187  47.0041 117.9746 0003244 335.3793  24.6937 14.56664916450794
ORBCOMM FM117           
1 41188U 15081K   24150.30652117  .00000489  00000+0  14607-3 0  9995
2 41188  47.0001 116.7015 0003526 347.8750  12.2049 14.56619955450847
ORBCOMM FM116           
1 41189U 15081L   24149.47209765  .00000841  00000+0  22376-3 0  9993
2 41189  46.9999 210.4495 0000782  85.1200 274.9775 14.56689340449531
